HERMES-3                
1 63835U 25052BR  26068.93751242  .00020316  00000+0  69958-3 0  9995
2 63835  97.3987 324.6131 0007993 112.9583 247.2502 15.30039785 54863
STARLINK-35509          
1 66199U 25243Y   26068.80712287  .00027681  00000+0  94307-3 0  9993
2 66199  53.1599 244.5686 0000962  64.9004 295.2097 15.30205868 20677
